{
    "links": {
        "self": "http://www.neowsapp.com/rest/v1/neo/3590078?api_key=iIulBulltgU6a56xZRHN4H3l9WmuAYTsLGpBGhQ2"
    },
    "id": "3590078",
    "neo_reference_id": "3590078",
    "name": "(2011 XF)",
    "designation": "2011 XF",
    "nasa_jpl_url": "http://ssd.jpl.nasa.gov/sbdb.cgi?sstr=3590078",
    "absolute_magnitude_h": 22.7,
    "estimated_diameter": {
        "kilometers": {
            "estimated_diameter_min": 0.0766575574,
            "estimated_diameter_max": 0.1714115092
        },
        "meters": {
            "estimated_diameter_min": 76.6575573531,
            "estimated_diameter_max": 171.4115092306
        },
        "miles": {
            "estimated_diameter_min": 0.0476327831,
            "estimated_diameter_max": 0.1065101409
        },
        "feet": {
            "estimated_diameter_min": 251.5011804664,
            "estimated_diameter_max": 562.3737359442
        }
    },
    "is_potentially_hazardous_asteroid": false,
    "close_approach_data": [
        {
            "close_approach_date": "2011-12-17",
            "close_approach_date_full": "2011-Dec-17 10:49",
            "epoch_date_close_approach": 1324118940000,
            "relative_velocity": {
                "kilometers_per_second": "3.6493110495",
                "kilometers_per_hour": "13137.5197780452",
                "miles_per_hour": "8163.1438865303"
            },
            "miss_distance": {
                "astronomical": "0.2891621252",
                "lunar": "112.4840667028",
                "kilometers": "43258038.014593324",
                "miles": "26879298.4126389112"
            },
            "orbiting_body": "Earth"
        }
    ],
    "orbital_data": {
        "orbit_id": "12",
        "orbit_determination_date": "2017-04-06 08:51:46",
        "first_observation_date": "2011-12-01",
        "last_observation_date": "2012-01-18",
        "data_arc_in_days": 48,
        "observations_used": 39,
        "orbit_uncertainty": "5",
        "minimum_orbit_intersection": ".278852",
        "jupiter_tisserand_invariant": "3.508",
        "epoch_osculation": "2459000.5",
        "eccentricity": ".4336265466310992",
        "semi_major_axis": "2.228148641766584",
        "inclination": "6.138443406662949",
        "ascending_node_longitude": "96.61152344389465",
        "orbital_period": "1214.827645070102",
        "perihelion_distance": "1.261964240856566",
        "perihelion_argument": "353.535520371876",
        "aphelion_distance": "3.194333042676602",
        "perihelion_time": "2459563.479369324311",
        "mean_anomaly": "193.1676318206797",
        "mean_motion": ".2963383336400992",
        "equinox": "J2000",
        "orbit_class": {
            "orbit_class_type": "AMO",
            "orbit_class_description": "Near-Earth asteroid orbits similar to that of 1221 Amor",
            "orbit_class_range": "1.017 AU < q (perihelion) < 1.3 AU"
        }
    },
    "is_sentry_object": false
}